[{"OBJECT_NAME":"SPOT 7","OBJECT_ID":"2014-034A","EPOCH":"2026-03-09T22:30:32.970240","MEAN_MOTION":14.60861606,"ECCENTRICITY":0.00013975,"INCLINATION":98.074,"RA_OF_ASC_NODE":133.9442,"ARG_OF_PERICENTER":99.9915,"MEAN_ANOMALY":260.1443,"EPHEMERIS_TYPE":0,"CLASSIFICATION_TYPE":"U","NORAD_CAT_ID":40053,"ELEMENT_SET_NO":999,"REV_AT_EPOCH":62264,"BSTAR":0.00013040452,"MEAN_MOTION_DOT":5.92e-6,"MEAN_MOTION_DDOT":0},{"OBJECT_NAME":"MAST","OBJECT_ID":"2007-012K","EPOCH":"2026-03-09T22:37:07.690368","MEAN_MOTION":14.62468119,"ECCENTRICITY":0.00820248,"INCLINATION":98.4194,"RA_OF_ASC_NODE":34.8224,"ARG_OF_PERICENTER":358.2497,"MEAN_ANOMALY":1.8404,"EPHEMERIS_TYPE":0,"CLASSIFICATION_TYPE":"U","NORAD_CAT_ID":31126,"ELEMENT_SET_NO":999,"REV_AT_EPOCH":433,"BSTAR":0.00037887982,"MEAN_MOTION_DOT":1.96e-5,"MEAN_MOTION_DDOT":0}]
